[{"OBJECT_NAME":"OBJECT V","OBJECT_ID":"2023-091V","EPOCH":"2026-03-09T23:35:36.322656","MEAN_MOTION":15.35373298,"ECCENTRICITY":0.00083972,"INCLINATION":97.5164,"RA_OF_ASC_NODE":137.4699,"ARG_OF_PERICENTER":75.9792,"MEAN_ANOMALY":284.2385,"EPHEMERIS_TYPE":0,"CLASSIFICATION_TYPE":"U","NORAD_CAT_ID":57185,"ELEMENT_SET_NO":999,"REV_AT_EPOCH":14953,"BSTAR":0.0007712531,"MEAN_MOTION_DOT":0.00026506,"MEAN_MOTION_DDOT":0},{"OBJECT_NAME":"ELECTRON KICK STAGE R\/B","OBJECT_ID":"2025-061J","EPOCH":"2026-03-09T21:50:35.145600","MEAN_MOTION":15.31602074,"ECCENTRICITY":0.00402669,"INCLINATION":97.5479,"RA_OF_ASC_NODE":52.3854,"ARG_OF_PERICENTER":150.2628,"MEAN_ANOMALY":210.0914,"EPHEMERIS_TYPE":0,"CLASSIFICATION_TYPE":"U","NORAD_CAT_ID":63359,"ELEMENT_SET_NO":999,"REV_AT_EPOCH":5306,"BSTAR":0.0006963674,"MEAN_MOTION_DOT":0.00021749,"MEAN_MOTION_DDOT":0}]
